{"type": "FeatureCollection", "features": [{"type": "Feature", "geometry": {"type": "Polygon", "coordinates": [[[76.33936854346189, 12.649640302324682], [76.3453348942963, 12.645364003379518], [76.34944168907721, 12.644383024172932], [76.34863459719224, 12.635973189882899], [76.34940158634619, 12.631268794862775], [76.35658075301866, 12.626952395451944], [76.36055824464039, 12.62206071963861], [76.36068755173768, 12.613441340190136], [76.35965750767262, 12.607738148641815], [76.36007660991874, 12.603609013993907], [76.36666716004005, 12.599221227896487], [76.3670417266459, 12.593870284801971], [76.36892796820658, 12.5885016041546], [76.37095681580138, 12.577429609944037], [76.37512163156885, 12.5682304717612], [76.39050111160974, 12.56517153875095], [76.38865500482457, 12.559642297150162], [76.38548461405526, 12.553551119764602], [76.3860018322029, 12.54608214698465], [76.39084443904885, 12.544780086723584], [76.40741889951617, 12.54920792788955], [76.41268062289305, 12.539919685550593], [76.42048854469861, 12.537502815553342], [76.4211217183519, 12.53343162480786], [76.41808957275286, 12.52912865392003], [76.42778813070966, 12.520130175726488], [76.43282243168773, 12.510770510804651], [76.43495383849515, 12.505111884114186], [76.43877977881345, 12.501138812042178], [76.44455881776139, 12.501910306136127], [76.44660997525453, 12.501018422462451], [76.44671695444089, 12.496648529889706], [76.44402364730536, 12.490980991447788], [76.44486201825865, 12.480591342942722], [76.44637359684042, 12.4765870107418], [76.45163534258286, 12.471780131108408], [76.46002741116003, 12.468493802740051], [76.47601323696989, 12.464458287435532], [76.49189209683034, 12.454692860545588], [76.49408597779778, 12.444370051437538], [76.49991408797926, 12.443759163084923], [76.50621033004566, 12.444481542360164], [76.51144971564976, 12.440481733157888], [76.52255294403389, 12.435219982967231], [76.52860841538053, 12.43111309430446], [76.53396817830361, 12.431122005857269], [76.53803041308105, 12.43199161233315], [76.54776914686869, 12.424709872952914], [76.56133820018498, 12.417588691807333], [76.55924238219443, 12.396519446257631], [76.55750335205755, 12.391788283770223], [76.55185811072081, 12.390504116588927], [76.55062743110734, 12.387891067335046], [76.55037774829106, 12.384100815343338], [76.55246012872558, 12.381309430480446], [76.55410106769313, 12.376841372394004], [76.55895258956645, 12.371508362396913], [76.55813656317697, 12.365979068673857], [76.55504641048783, 12.355299510422144], [76.55558147548834, 12.34978802923182], [76.55803840683853, 12.344941007953102], [76.56165479669228, 12.34205147157243], [76.56643045897934, 12.341708187073799], [76.57353383337804, 12.341752709241199], [76.57936188172253, 12.345449357902313], [76.58936366751107, 12.356061969164198], [76.59282832113546, 12.358001697814798], [76.60948311172783, 12.35995032441646], [76.61380838439187, 12.359428628202028], [76.6179419616233, 12.360530006074201], [76.62323047444055, 12.370197370642908], [76.63168497529064, 12.373358836791567], [76.63363805638701, 12.374888367694846], [76.63507832322925, 12.38220128975762], [76.63777160758455, 12.38507294250919], [76.64373791342929, 12.388363690997318], [76.64657387289898, 12.38736044120839], [76.6579802612899, 12.378892583317569], [76.66136030629961, 12.382210165246384], [76.67588800174478, 12.381889131346815], [76.67890236498198, 12.383079706215721], [76.67694037615921, 12.378691958921376], [76.67759581491282, 12.37128089656229], [76.67437189405985, 12.36518978989267], [76.67397504390685, 12.35949994291177], [76.67671296745898, 12.356490032284222], [76.68210396798408, 12.356449956581663], [76.68688419515128, 12.348860588504285], [76.6932071879631, 12.342907686672326], [76.70123357024524, 12.344160670116338], [76.71214493497727, 12.347701188639356], [76.7129654359437, 12.344321225842586], [76.71655056171096, 12.34177948982716], [76.72412653694327, 12.333378562408248], [76.72635615471233, 12.321851818115038], [76.72532603481807, 12.31200604188015], [76.73580941826226, 12.310012822190608], [76.74115588628185, 12.298472738513308], [76.74487476611449, 12.294548659387619], [76.74719797535396, 12.295097177056185], [76.75023458501722, 12.294450561060716], [76.75232593187813, 12.295449454125778], [76.75598689366248, 12.30050159385183], [76.75775261613013, 12.307881384684553], [76.75808712585116, 12.312541209907272], [76.75617409505931, 12.321660076168502], [76.755674743957, 12.327639732099941], [76.75734687110563, 12.333980490348576], [76.76069563705971, 12.340058282437365], [76.76346478191245, 12.34270254908755], [76.7684723320757, 12.344187375720944], [76.77005087419111, 12.34305923626192], [76.77133058011587, 12.343540876803809], [76.77419334094908, 12.342889854445252], [76.77702936054061, 12.339590053224784], [76.78077499467318, 12.338542212890307], [76.78555516782623, 12.340388230538759], [76.78730762031347, 12.343121674658084], [76.79081685291142, 12.346323328670112], [76.79775967344295, 12.34733105699694], [76.79663155302968, 12.35210230384442], [76.79778203153147, 12.35899165273604], [76.80388651986647, 12.35239219129151], [76.80726651657893, 12.36102939818835], [76.81037894404594, 12.378709771634977], [76.81299648439642, 12.37805871354124], [76.82348422407358, 12.379137863748861], [76.82801027905482, 12.376613989265516], [76.82884858876714, 12.38009210616652], [76.82881285995724, 12.387592294995349], [76.82594123324364, 12.392559745297875], [76.82805480835047, 12.39484283294704], [76.83442690905737, 12.393620978196243], [76.83879232633603, 12.394040142417277], [76.84787113461411, 12.400131329235963], [76.85292772944078, 12.398539372090067], [76.85465336503066, 12.396278611638875], [76.8570702526119, 12.390022498182173], [76.87342175891061, 12.393130472398814], [76.87699347739398, 12.396082429366757], [76.88884128517631, 12.400844712359984], [76.89404950920215, 12.412991351233645], [76.89821431146846, 12.414659080748452], [76.89643070764693, 12.422471387290702], [76.89688103069223, 12.427478963228483], [76.89982409748379, 12.430738587465287], [76.91190381236225, 12.433940233778799], [76.91884661321401, 12.421722279243124], [76.91912748635339, 12.405357375650436], [76.92858085793436, 12.39385736818897], [76.92804570954748, 12.380453323335152], [76.93202321485666, 12.368141696962198], [76.930168263484, 12.360730660351402], [76.93105116264081, 12.356877999400822], [76.93107789308075, 12.346309942136132], [76.9236847698411, 12.345271005952963], [76.91565838541906, 12.342751606617282], [76.91867267204331, 12.33559027892345], [76.91971613949488, 12.330511387524842], [76.91784772322502, 12.322319992976437], [76.91571185300285, 12.316853145967194], [76.91664823546493, 12.314659212894403], [76.9226368514517, 12.316233277738695], [76.93998715784655, 12.322881830698352], [76.94748743530246, 12.320219784884577], [76.94911943291909, 12.325080175821462], [76.94918185334026, 12.329240483099484], [76.94682304259638, 12.336129795700703], [76.94693003846326, 12.347339976218105], [76.95165218185288, 12.346702318981249], [76.9561603433207, 12.344722517863879], [76.96158705933682, 12.344049142710698], [76.96893121580261, 12.344597634143142], [76.97054095165163, 12.341569890769353], [76.97088429123917, 12.338849855991203], [76.97072378493688, 12.326560582862001], [76.96935481405451, 12.321370186609425], [76.97009054771577, 12.318730408645251], [76.97242719783317, 12.318409311687928], [76.97693529496567, 12.32076817470099], [76.97796086201545, 12.318141781020051], [76.97734998792704, 12.311230228821074], [76.98068092847605, 12.306641798811912], [76.98400747124867, 12.30473332584838], [76.98899720281534, 12.303119128298405], [76.9894877011977, 12.30095195815017], [76.9847432043098, 12.293322440972613], [76.9811491355511, 12.292782863033441], [76.97376044748344, 12.29498124797911], [76.97033587918379, 12.297790478635086], [76.96795022727463, 12.298160614652318], [76.96592581471597, 12.291833121347302], [76.96460592886115, 12.28184029016074], [76.9712232348503, 12.28043115753874], [76.97518738114101, 12.278420099501918], [76.97869663161633, 12.278179321900465], [76.98064972632615, 12.279441288922092], [76.98322260238263, 12.278897232094447], [76.98394946319662, 12.273350114223586], [76.98219259714071, 12.264231311091638], [76.98134540053059, 12.253212854620697], [76.98176007847505, 12.24901234613138], [76.98397178751084, 12.24491887307497], [76.99106622950966, 12.2357911393547], [76.99962768133888, 12.236682929638956], [77.01615312053993, 12.2344801811194], [77.02417060805867, 12.22950825383818], [77.02649822301038, 12.2254593962732], [77.03456923169, 12.226761486563221], [77.03909961970842, 12.22549062641127], [77.04151198556282, 12.22974901798832], [77.04956073380009, 12.230029963808558], [77.05613783252932, 12.225780456290272], [77.05992809885308, 12.226360152696504], [77.06096710518914, 12.228183886754898], [77.06627785200483, 12.228901782939706], [77.07173134759638, 12.226908633413181], [77.07090638303544, 12.219519827515102], [77.07213710899187, 12.215520093145633], [77.07495974764669, 12.217379468679502], [77.07950802716783, 12.210628434457593], [77.08936261335498, 12.2107086691298], [77.0980222071346, 12.212171267924974], [77.09969880285327, 12.225142779534348], [77.1022851257471, 12.233441202590324], [77.10396613986308, 12.234190274823375], [77.1126079099976, 12.235621689450896], [77.1247545020434, 12.240829885839172], [77.12935628570965, 12.240829914188845], [77.1354920434789, 12.240829909400178], [77.13698579650371, 12.242461976413018], [77.14302794517127, 12.247951100559831], [77.15582108711403, 12.248089345796929], [77.16081976157571, 12.251282074424509], [77.15975845160293, 12.258189177779249], [77.15669057806285, 12.266130815451127], [77.15902712252102, 12.281541471203214], [77.15952210633428, 12.284761010541898], [77.159210021035, 12.29396904335742], [77.15701162197064, 12.300911868358682], [77.18398472891165, 12.29960082904862], [77.20575854400906, 12.299578581780741], [77.20923667388135, 12.296252107857473], [77.21644701748623, 12.296252065851572], [77.22513781204435, 12.300920739112819], [77.2404637596596, 12.29866001256834], [77.24635418165967, 12.301781328892305], [77.25450100966495, 12.303832557603721], [77.26267454411702, 12.304211536716977], [77.27052256657876, 12.299649945322846], [77.27813869084936, 12.29697888126283], [77.28380620789645, 12.294999029735722], [77.2868517582897, 12.292662471595543], [77.28962081809027, 12.291431791825442], [77.29361622827015, 12.289661512570582], [77.29891360093532, 12.29130245473391], [77.30509841619329, 12.295391502993015], [77.31327640005722, 12.298588657830095], [77.31375794021868, 12.305812411823524], [77.31391851159674, 12.308189068818194], [77.31577348066006, 12.31764237763389], [77.32424133280766, 12.344628891082312], [77.31919804916163, 12.357132186825735], [77.31170677921322, 12.371089147336692], [77.30887522033726, 12.376399948023387], [77.30517423747283, 12.381510114947817], [77.2850591898199, 12.38231270559567], [77.27805390922428, 12.383530077582023], [77.27533832224452, 12.395413526638977], [77.27272981610061, 12.395908548171468], [77.27260048964332, 12.398039996269192], [77.27469626212945, 12.398869385795713], [77.27358143822364, 12.409838787120771], [77.2733986288889, 12.41160007349101], [77.27670283079947, 12.413441751259425], [77.27554348614545, 12.419550660036498], [77.27162838851955, 12.419898484571936], [77.26670103514064, 12.421940760468878], [77.26191649264858, 12.426341884796157], [77.26609908701121, 12.430858928934974], [77.26434224013902, 12.436700375000825], [77.26042264782454, 12.456650371177028], [77.2576312396999, 12.4550005705246], [77.2554016959419, 12.453689576956148], [77.25020689240507, 12.453720776044067], [77.24810664923234, 12.456810968999493], [77.24684915137318, 12.460908866003676], [77.23597784337869, 12.458273474502036], [77.2346713631611, 12.460650187857581], [77.22918663712865, 12.460971298083125], [77.22811199284607, 12.46254087221789], [77.22551682515262, 12.46366901951737], [77.22519579121702, 12.465813856636508], [77.22754572189362, 12.467031167264688], [77.2257932995802, 12.469590692802083], [77.22590478385058, 12.47350135946094], [77.22241328512071, 12.473733227396057], [77.21924729555307, 12.466540709815401], [77.2175617682115, 12.466910786834067], [77.21726299359189, 12.474040885238846], [77.21848931560993, 12.47972176445816], [77.22603407389542, 12.47792034714241], [77.23031477504786, 12.479061862827106], [77.23153657607077, 12.484158589611043], [77.23063588277326, 12.490949801804954], [77.21605464167736, 12.491542839384698], [77.2150869863134, 12.487551955179113], [77.21391422757416, 12.482611266122841], [77.20848301610675, 12.482361562706124], [77.20542859579388, 12.47782223454541], [77.20139308190075, 12.476551360885026], [77.19758054028061, 12.475980639640932], [77.19584592308433, 12.479802080635006], [77.191872903931, 12.479931377183746], [77.19033009109148, 12.474892621351877], [77.18695897871703, 12.475209209688783], [77.18673154955596, 12.475231482357438], [77.1856747703745, 12.473991887239645], [77.17944542571239, 12.473572699789107], [77.1695863307159, 12.47028191753274], [77.16596996007965, 12.474308472701043], [77.1604451929907, 12.475441049305756], [77.1579123482485, 12.474098844174542], [77.15783660781341, 12.46703119842262], [77.14959614700359, 12.466589745862045], [77.1479507951483, 12.46184974436435], [77.1389790766551, 12.453591483436325], [77.13236174647436, 12.45422019809309], [77.12858491552265, 12.459638012700378], [77.12616806382682, 12.461970107725888], [77.1247545020434, 12.468551704461317], [77.12159749876808, 12.471111254027326], [77.11772252570951, 12.472462347245374], [77.11563117507613, 12.476970546822123], [77.11807923074817, 12.48031927448963], [77.12454047353243, 12.492920726233116], [77.1228861729719, 12.498289452580222], [77.12195419225456, 12.509811765204446], [77.11804358663015, 12.51200125090585], [77.11691991353689, 12.521971778971317], [77.1121085173822, 12.531059431383396], [77.10645438382538, 12.534550888707821], [77.10736848595367, 12.540343300606615], [77.10656141429762, 12.54506103181978], [77.11392337111907, 12.545582756098494], [77.12055849014415, 12.543620673450855], [77.12169556105091, 12.552079597585076], [77.12063434202963, 12.558331287116587], [77.12188729584614, 12.55981173637025], [77.11052551331547, 12.571619444912303], [77.10582115482657, 12.587221833533038], [77.10249910623614, 12.588300911681177], [77.1002517213161, 12.593339674274853], [77.10357822237467, 12.607372454381649], [77.11580509719472, 12.61171114886302], [77.11582291958837, 12.614810295025725], [77.10824693407505, 12.620049716853812], [77.09715264059068, 12.616959516469791], [77.0959175168626, 12.620419792706816], [77.09371022620181, 12.620861268374666], [77.09210054770337, 12.632963251801657], [77.09189541773814, 12.659120303616952], [77.09027227940639, 12.66712890838255], [77.08454677445893, 12.666593836444443], [77.07570441295694, 12.66823030655935], [77.06855643702885, 12.670580203314232], [77.06664349301727, 12.674700444369291], [77.06516309239719, 12.684550619471725], [77.06590333889719, 12.693437594541164], [77.0675442843958, 12.70042948063678], [77.06976487851396, 12.704942069794042], [77.07071017536526, 12.711590605956928], [77.07293527806543, 12.716428728655604], [77.0740411831568, 12.72589985375892], [77.07752368144709, 12.732401205532934], [77.07325189186213, 12.738389762522827], [77.06939476769989, 12.738041941860462], [77.06645175778932, 12.740619315979645], [77.06131932358154, 12.74726339009501], [77.05674874884193, 12.746871036088175], [77.04615842137753, 12.738991792526319], [77.04383074558291, 12.73989254314504], [77.03646880343007, 12.764667226144866], [77.03758356456952, 12.768560069785398], [77.03540753494983, 12.768823123554776], [77.03172877949044, 12.76388250762683], [77.02776463339526, 12.760551480600766], [77.02291760309085, 12.758379972762768], [77.01899797998372, 12.757581769930358], [77.01805711098307, 12.753813835835981], [77.01029387222974, 12.75433108251464], [77.0028070385511, 12.756400122322509], [77.00089402088007, 12.76114011040968], [77.00331092638062, 12.773411565033783], [76.99239945081145, 12.767240135182133], [76.9894029780922, 12.768310360572993], [76.98307995433974, 12.777509471424096], [76.98047587307413, 12.779908508979517], [76.97403688751902, 12.783640767319273], [76.9725564976698, 12.78539317058191], [76.96653665815428, 12.785000750963052], [76.96356249250863, 12.79510060091953], [76.95136232810516, 12.795559898371344], [76.9469701289201, 12.79473942791334], [76.94403162186629, 12.79325014415573], [76.94046879729866, 12.793531026085835], [76.93419036673502, 12.796692492271914], [76.9273902682974, 12.794824130432264], [76.92500905433566, 12.792318121615184], [76.91779425657154, 12.797009140545596], [76.91439643815363, 12.801490506644042], [76.90988823450043, 12.810890283596589], [76.90792627043666, 12.812892439005156], [76.89932462015602, 12.818600097895173], [76.89662244695748, 12.822840670907441], [76.89578855468879, 12.828851531707413], [76.88931397755796, 12.842451831206315], [76.88696404345315, 12.843272274866424], [76.88446250536376, 12.846050322523617], [76.88575114819027, 12.86001172405143], [76.8856575571104, 12.874829333831226], [76.8849262424092, 12.882111081420344], [76.88072131859454, 12.89067258309869], [76.87786303558906, 12.890922227298466], [76.86958241136026, 12.889321421090942], [76.86485130679074, 12.889780750784642], [76.8619440042861, 12.892090524158313], [76.8574849108139, 12.899510523290312], [76.8565351452776, 12.903849213270057], [76.85819395288269, 12.90687242326907], [76.86032087873933, 12.909182237723114], [76.86823131407264, 12.912571177686567], [76.87383196374316, 12.91286104048354], [76.88173792702634, 12.910783066755242], [76.88625499067723, 12.910332707384592], [76.88767300418894, 12.912580122506796], [76.88298648699354, 12.924120262261058], [76.8815462525119, 12.926059990479777], [76.87518308771257, 12.92621156678922], [76.85719949801853, 12.920642142894431], [76.85547829709319, 12.921649960669507], [76.85161674765679, 12.926884944396988], [76.8441031465211, 12.930701868726635], [76.84142325880818, 12.933542318649865], [76.84091043418354, 12.936329317785543], [76.83232664237995, 12.93719884585505], [76.83360192481514, 12.941943264100042], [76.83271903160224, 12.964390402548286], [76.84472744222053, 12.966499579586511], [76.84556572693108, 12.968292154995401], [76.84520901447056, 12.97024071597904], [76.82808604924995, 12.983060635385888], [76.8206795361034, 12.993231911691199], [76.81458388049302, 12.993749147812466], [76.80845712037338, 12.995470321174642], [76.80513956130164, 13.003541291011668], [76.80348963863179, 13.005119798772101], [76.7995611591673, 13.002689596475975], [76.78782040190339, 13.00635945365324], [76.78085528344359, 13.004812192655114], [76.77799249911205, 13.01106826653368], [76.77662799191924, 13.015821635782592], [76.77670388141301, 13.020129163968315], [76.75586643654809, 13.02782108217563], [76.73879258349909, 13.027821107078731], [76.71865973279147, 13.032141973216998], [76.70509959352877, 13.030550114042002], [76.69631962886689, 13.032480912685035], [76.68826201096586, 13.028440936037665], [76.67842076949957, 13.03610163345736], [76.66777691849266, 13.047240516680931], [76.66191316689225, 13.034112900831277], [76.64988698025745, 13.004522288474874], [76.64673444523687, 12.99983130176344], [76.64058531406936, 12.998341982739289], [76.63461454163314, 13.00066072653806], [76.62886234603981, 12.997922880490387], [76.62579893280252, 12.998961771604156], [76.62603083985935, 12.993713442801154], [76.62896935042501, 12.977941634695217], [76.62657036809925, 12.97044141053157], [76.62616904956559, 12.965197507219864], [76.62280243708952, 12.965549737749201], [76.62078246219602, 12.962299107602853], [76.61428105689384, 12.95940062755514], [76.60687897394625, 12.958838847842182], [76.60621012335723, 12.957050744408932], [76.60665152811266, 12.953443343587379], [76.61350073200968, 12.944391329167296], [76.61360774928346, 12.941002381546777], [76.61245735296633, 12.936449671079467], [76.60971945620236, 12.931348500377215], [76.5992672528302, 12.93022921917736], [76.59684152762911, 12.91744054157942], [76.59262765309946, 12.916401516907024], [76.59050959867062, 12.913547718280824], [76.59073698503784, 12.910689429900083], [76.59520060610136, 12.895640012549707], [76.59104028379025, 12.893218674892582], [76.585729454089, 12.884073045173318], [76.59021978847352, 12.876309796943367], [76.59031783203315, 12.873549616281627], [76.57646790708738, 12.865670323563092], [76.57343127978979, 12.862571250143436], [76.57168776807157, 12.856631801376349], [76.57256173141201, 12.849568538573154], [76.57071565212601, 12.841212221345303], [76.56643495641714, 12.839080765704798], [76.55663378407554, 12.839120891501121], [76.5331254430603, 12.835861287400668], [76.52712346358392, 12.836360675981158], [76.51941818268628, 12.835611527525687], [76.51664010396713, 12.83466175161188], [76.51452653282627, 12.830430131427564], [76.51268050423364, 12.821271074093097], [76.51068279372699, 12.818082803307863], [76.50689699303855, 12.816531065335603], [76.49926744483935, 12.816602375746333], [76.4964359939742, 12.814658208842866], [76.49326107090657, 12.807831378053663], [76.49032695749865, 12.803880630216106], [76.48705402762097, 12.801370135729396], [76.48829810717916, 12.79926101057333], [76.49326998264665, 12.798110547061171], [76.49064805172178, 12.793602394600663], [76.48826687077188, 12.780751238127534], [76.49307824774712, 12.774958856786313], [76.4949109676768, 12.770379373566456], [76.49561101379633, 12.76534057330935], [76.49302027722241, 12.76246896886218], [76.48764708242459, 12.775801655091687], [76.48520796065348, 12.77852167398559], [76.48103420485238, 12.777763657026476], [76.47609804209043, 12.774602118123367], [76.47370794610255, 12.770718294829422], [76.47190643208158, 12.765692834005883], [76.45688822663976, 12.770878755431148], [76.45229978695565, 12.773572122808334], [76.45169783297891, 12.778619800121016], [76.45571101295273, 12.783279590794209], [76.46399603070941, 12.788389656640872], [76.4645980161431, 12.79559117093324], [76.45995159785005, 12.797530801279397], [76.45395858827419, 12.796527577446899], [76.45276802049615, 12.80231099808878], [76.44687751132257, 12.804821463054648], [76.44019335871428, 12.815929110772462], [76.43392384678309, 12.817570053394347], [76.42222755780116, 12.818782910685798], [76.41854883541951, 12.838162179008767], [76.42370805791627, 12.841279042455078], [76.42386405239189, 12.845194186359095], [76.42089880131749, 12.85020173283384], [76.41423689417779, 12.853042222427094], [76.4114544513996, 12.856850272409686], [76.40690609203347, 12.859708554901117], [76.40428860595931, 12.859971630331925], [76.4072093797589, 12.843227723692339], [76.40611241961483, 12.839410707372435], [76.39422441804564, 12.841323632562679], [76.39015778327439, 12.839812031824252], [76.3847890111663, 12.839218995569846], [76.38461504363832, 12.832160223478406], [76.38094966216163, 12.826407956377556], [76.37262009073902, 12.82152081660639], [76.36765263622775, 12.822479511003742], [76.36546325814355, 12.819977969009917], [76.3652491671835, 12.814109819082608], [76.36669842548474, 12.811322836146433], [76.3677997769592, 12.803398999310712], [76.35241588217467, 12.802489318810883], [76.34673949746966, 12.803113670327514], [76.33325068104207, 12.80635092167734], [76.32816283344889, 12.804308633831612], [76.32617856326895, 12.80038018166569], [76.32723978928533, 12.791488778978929], [76.3292463949945, 12.786231467973302], [76.33216715222026, 12.781562841719941], [76.33547133530114, 12.779359979691243], [76.344857709195, 12.780309756923346], [76.34638271677954, 12.779471493785765], [76.34612416280373, 12.769982522996136], [76.34707834548382, 12.764760922331043], [76.34169174299471, 12.761759955781438], [76.34010431458988, 12.75925833482252], [76.34317668244154, 12.751548564981464], [76.35225096994982, 12.745979165152015], [76.35337911738533, 12.742148801331071], [76.35138586195741, 12.737761017531476], [76.34892441591315, 12.738059807573165], [76.34184341782336, 12.736641833569944], [76.34335503306066, 12.732289718281857], [76.34158918350425, 12.729333337968901], [76.33938638788148, 12.728040173751845], [76.33912782023994, 12.725730398507638], [76.34263712397906, 12.713369787086101], [76.34720766576929, 12.709071226419411], [76.35215725166289, 12.705700103701124], [76.35745916433036, 12.705017855119353], [76.3593007618467, 12.703840700462786], [76.35975563689522, 12.700509728297886], [76.35958172465874, 12.696380566879228], [76.35697760663517, 12.682891808512721], [76.3511183080128, 12.67618980940831], [76.35079280834398, 12.670491022952955], [76.34980738302367, 12.667552486034715], [76.34871489143973, 12.66551914864411], [76.34221796645194, 12.65893303822461], [76.33936854346189, 12.649640302324682]]]}, "properties": {"aoi_name": "Mandya_AOI", "districts": "Mandya", "area_sq_km": 4944.589930611991}}]}